{
  "norad_id": 60522,
  "name": "CONNECTA IOT-2",
  "history": [
    {
      "epoch": "2026-04-10T05:00:14.739552Z",
      "apogee_km": 499.9006785730462,
      "perigee_km": 491.30863897441304,
      "latitude_deg": 5.872008503694914e-05,
      "longitude_deg": -94.09606360669225,
      "height_km": 502.93831387387326,
      "semi_major_axis_km": 6873.74165877373,
      "eccentricity": 0.00062499,
      "inclination_deg": 97.385,
      "raan_deg": 179.411,
      "arg_perigee_deg": 189.6112,
      "mean_anomaly_deg": 170.5007,
      "mean_motion_rev_day": 15.233965
    },
    {
      "epoch": "2026-04-11T18:50:18.580128Z",
      "apogee_km": 499.9764374082233,
      "perigee_km": 491.16434453299917,
      "latitude_deg": -2.1220854122361945e-05,
      "longitude_deg": 58.38553758508921,
      "height_km": 503.0638258716869,
      "semi_major_axis_km": 6873.707390970611,
      "eccentricity": 0.000641,
      "inclination_deg": 97.385,
      "raan_deg": 180.9624,
      "arg_perigee_deg": 183.8135,
      "mean_anomaly_deg": 176.3054,
      "mean_motion_rev_day": 15.23407892
    },
    {
      "epoch": "2026-04-13T03:56:36.139488Z",
      "apogee_km": 500.0528631659954,
      "perigee_km": 491.0381660217563,
      "latitude_deg": 2.6301654889840956e-05,
      "longitude_deg": -78.18960230122818,
      "height_km": 503.14872533209467,
      "semi_major_axis_km": 6873.682514593876,
      "eccentricity": 0.00065574,
      "inclination_deg": 97.3851,
      "raan_deg": 182.32,
      "arg_perigee_deg": 179.1148,
      "mean_anomaly_deg": 181.0102,
      "mean_motion_rev_day": 15.23416162
    },
    {
      "epoch": "2026-04-14T14:37:28.155360Z",
      "apogee_km": 500.136476893279,
      "perigee_km": 490.9092758752204,
      "latitude_deg": 1.632606317659626e-05,
      "longitude_deg": 121.59146479239064,
      "height_km": 503.2108720996108,
      "semi_major_axis_km": 6873.659876384249,
      "eccentricity": 0.0006712,
      "inclination_deg": 97.3852,
      "raan_deg": 183.7421,
      "arg_perigee_deg": 174.505,
      "mean_anomaly_deg": 185.6262,
      "mean_motion_rev_day": 15.23423688
    },
    {
      "epoch": "2026-04-15T17:25:24.349728Z",
      "apogee_km": 500.1975439841772,
      "perigee_km": 490.81364711273454,
      "latitude_deg": 9.246737950345224e-06,
      "longitude_deg": 79.60573107148933,
      "height_km": 503.2304717276272,
      "semi_major_axis_km": 6873.642595548456,
      "eccentricity": 0.0006826,
      "inclination_deg": 97.3852,
      "raan_deg": 184.8411,
      "arg_perigee_deg": 170.6795,
      "mean_anomaly_deg": 189.457,
      "mean_motion_rev_day": 15.23429433
    },
    {
      "epoch": "2026-04-16T15:29:35.096640Z",
      "apogee_km": 500.2422966252889,
      "perigee_km": 490.73607161265227,
      "latitude_deg": -1.540529432595493e-05,
      "longitude_deg": 108.55958882032374,
      "height_km": 503.22467563540044,
      "semi_major_axis_km": 6873.62618411897,
      "eccentricity": 0.0006915,
      "inclination_deg": 97.3852,
      "raan_deg": 185.7461,
      "arg_perigee_deg": 167.5448,
      "mean_anomaly_deg": 192.5961,
      "mean_motion_rev_day": 15.23434889
    },
    {
      "epoch": "2026-04-17T23:01:15.748320Z",
      "apogee_km": 500.29629742979887,
      "perigee_km": 490.63723447373377,
      "latitude_deg": -4.8348278477159516e-05,
      "longitude_deg": -4.361694412023521,
      "height_km": 503.18805651057875,
      "semi_major_axis_km": 6873.603765951766,
      "eccentricity": 0.00070262,
      "inclination_deg": 97.3851,
      "raan_deg": 187.039,
      "arg_perigee_deg": 163.3865,
      "mean_anomaly_deg": 196.7603,
      "mean_motion_rev_day": 15.23442342
    },
    {
      "epoch": "2026-04-18T14:47:05.750592Z",
      "apogee_km": 500.3158090480092,
      "perigee_km": 490.5841845779214,
      "latitude_deg": 7.841301645347574e-06,
      "longitude_deg": 119.17905564908267,
      "height_km": 503.154811643485,
      "semi_major_axis_km": 6873.586996812965,
      "eccentricity": 0.0007079,
      "inclination_deg": 97.385,
      "raan_deg": 187.6855,
      "arg_perigee_deg": 161.4084,
      "mean_anomaly_deg": 198.7413,
      "mean_motion_rev_day": 15.23447917
    },
    {
      "epoch": "2026-04-19T17:35:00.464928Z",
      "apogee_km": 500.3693588527649,
      "perigee_km": 490.48517343804815,
      "latitude_deg": -3.900320799340229e-06,
      "longitude_deg": 77.1995032458997,
      "height_km": 503.09899747473406,
      "semi_major_axis_km": 6873.564266145407,
      "eccentricity": 0.000719,
      "inclination_deg": 97.3848,
      "raan_deg": 188.7845,
      "arg_perigee_deg": 157.9191,
      "mean_anomaly_deg": 202.2357,
      "mean_motion_rev_day": 15.23455474
    },
    {
      "epoch": "2026-04-20T04:37:05.251296Z",
      "apogee_km": 500.39633265797875,
      "perigee_km": 490.45056563048547,
      "latitude_deg": 3.3815307585852724e-05,
      "longitude_deg": -88.32112307858921,
      "height_km": 503.0736697875967,
      "semi_major_axis_km": 6873.560449144232,
      "eccentricity": 0.00072348,
      "inclination_deg": 97.3847,
      "raan_deg": 189.237,
      "arg_perigee_deg": 156.443,
      "mean_anomaly_deg": 203.714,
      "mean_motion_rev_day": 15.23456743
    },
    {
      "epoch": "2026-04-21T15:17:53.698848Z",
      "apogee_km": 500.4633755314235,
      "perigee_km": 490.3056854136912,
      "latitude_deg": 1.3390840068914448e-05,
      "longitude_deg": 111.4751492022866,
      "height_km": 502.9498337978983,
      "semi_major_axis_km": 6873.521530472557,
      "eccentricity": 0.0007389,
      "inclination_deg": 97.3843,
      "raan_deg": 190.6594,
      "arg_perigee_deg": 151.7686,
      "mean_anomaly_deg": 208.3953,
      "mean_motion_rev_day": 15.23469682
    },
    {
      "epoch": "2026-04-22T03:54:32.913216Z",
      "apogee_km": 500.47678884088054,
      "perigee_km": 490.2692140781137,
      "latitude_deg": 7.994515636001984e-05,
      "longitude_deg": -77.6889648880942,
      "height_km": 502.8955725443283,
      "semi_major_axis_km": 6873.510001459497,
      "eccentricity": 0.00074253,
      "inclination_deg": 97.3843,
      "raan_deg": 191.1766,
      "arg_perigee_deg": 150.278,
      "mean_anomaly_deg": 209.8881,
      "mean_motion_rev_day": 15.23473515
    },
    {
      "epoch": "2026-04-23T01:58:41.214144Z",
      "apogee_km": 500.50910092146114,
      "perigee_km": 490.1954302784279,
      "latitude_deg": 4.2404442265433295e-06,
      "longitude_deg": -48.72478500580519,
      "height_km": 502.79605639249905,
      "semi_major_axis_km": 6873.489265599944,
      "eccentricity": 0.00075025,
      "inclination_deg": 97.3841,
      "raan_deg": 192.0817,
      "arg_perigee_deg": 147.6035,
      "mean_anomaly_deg": 212.5664,
      "mean_motion_rev_day": 15.23480409
    },
    {
      "epoch": "2026-04-24T18:57:47.104128Z",
      "apogee_km": 500.57111709528,
      "perigee_km": 490.0533650665784,
      "latitude_deg": -7.178012282210361e-05,
      "longitude_deg": 56.49838796406796,
      "height_km": 502.56949859087644,
      "semi_major_axis_km": 6873.449241080929,
      "eccentricity": 0.0007651,
      "inclination_deg": 97.3843,
      "raan_deg": 193.7626,
      "arg_perigee_deg": 142.4446,
      "mean_anomaly_deg": 217.7326,
      "mean_motion_rev_day": 15.23493716
    },
    {
      "epoch": "2026-04-25T18:36:29.054592Z",
      "apogee_km": 500.58974389350624,
      "perigee_km": 489.9689409611883,
      "latitude_deg": -4.23899538922177e-06,
      "longitude_deg": 61.82212034550112,
      "height_km": 502.40091150060636,
      "semi_major_axis_km": 6873.416342427347,
      "eccentricity": 0.0007726,
      "inclination_deg": 97.3843,
      "raan_deg": 194.7322,
      "arg_perigee_deg": 139.4353,
      "mean_anomaly_deg": 220.7461,
      "mean_motion_rev_day": 15.23504654
    },
    {
      "epoch": "2026-04-26T16:40:35.637888Z",
      "apogee_km": 500.58937720590984,
      "perigee_km": 489.8971468702821,
      "latitude_deg": 4.225838764167704e-06,
      "longitude_deg": 90.79346832770122,
      "height_km": 502.22971646853415,
      "semi_major_axis_km": 6873.380262038096,
      "eccentricity": 0.0007778,
      "inclination_deg": 97.3844,
      "raan_deg": 195.6373,
      "arg_perigee_deg": 136.8402,
      "mean_anomaly_deg": 223.3446,
      "mean_motion_rev_day": 15.2351665
    },
    {
      "epoch": "2026-04-27T17:53:51.046080Z",
      "apogee_km": 500.5947527964063,
      "perigee_km": 489.82833963361463,
      "latitude_deg": -2.0047950138087795e-05,
      "longitude_deg": 72.47778396195538,
      "height_km": 502.02856066104243,
      "semi_major_axis_km": 6873.34854621501,
      "eccentricity": 0.0007832,
      "inclination_deg": 97.3845,
      "raan_deg": 196.6716,
      "arg_perigee_deg": 133.8749,
      "mean_anomaly_deg": 226.3136,
      "mean_motion_rev_day": 15.23527195
    },
    {
      "epoch": "2026-04-28T17:32:31.121664Z",
      "apogee_km": 500.5887407035152,
      "perigee_km": 489.7728877910158,
      "latitude_deg": -6.410512521004417e-05,
      "longitude_deg": 77.80936507636079,
      "height_km": 501.807184764008,
      "semi_major_axis_km": 6873.317814247265,
      "eccentricity": 0.0007868,
      "inclination_deg": 97.3846,
      "raan_deg": 197.6412,
      "arg_perigee_deg": 130.9042,
      "mean_anomaly_deg": 229.2877,
      "mean_motion_rev_day": 15.23537413
    },
    {
      "epoch": "2026-04-29T18:45:45.342720Z",
      "apogee_km": 500.5962545228922,
      "perigee_km": 489.7048430730665,
      "latitude_deg": -3.876431001883052e-05,
      "longitude_deg": 59.49853386622808,
      "height_km": 501.5739812827046,
      "semi_major_axis_km": 6873.287548797979,
      "eccentricity": 0.0007923,
      "inclination_deg": 97.3846,
      "raan_deg": 198.6754,
      "arg_perigee_deg": 127.816,
      "mean_anomaly_deg": 232.3795,
      "mean_motion_rev_day": 15.23547476
    }
  ]
}